OBJECT_NAME,OBJECT_ID,EPOCH,MEAN_MOTION,ECCENTRICITY,INCLINATION,RA_OF_ASC_NODE,ARG_OF_PERICENTER,MEAN_ANOMALY,EPHEMERIS_TYPE,CLASSIFICATION_TYPE,NORAD_CAT_ID,ELEMENT_SET_NO,REV_AT_EPOCH,BSTAR,MEAN_MOTION_DOT,MEAN_MOTION_DDOT
SAUDISAT 1C (SO-50),2002-058C,2026-06-06T07:09:59.826240,14.83023212,.00754835,64.5503,162.6740,264.4886,94.7607,0,U,27607,999,26284,.14995839E-3,.1127E-4,0
SAUDISAT 2,2004-025F,2026-06-06T12:28:04.362816,14.56677687,.00241109,98.5506,157.2259,332.2198,27.7710,0,U,28371,999,16419,.82867624E-4,.321E-5,0
SAUDISAT 3,2007-012B,2026-06-06T13:58:32.932704,14.71419518,.00132719,98.1451,107.9763,260.6754,99.2952,0,U,31118,999,2618,.61665173E-4,.331E-5,0
PISAT,2016-059B,2026-06-06T05:53:26.661408,14.68964793,.00276648,97.8178,158.1687,239.0281,120.8207,0,U,41784,999,51813,.19118586E-3,.1079E-4,0
FLYING LAPTOP,2017-042G,2026-06-06T14:04:51.521088,15.01075819,.00190178,97.4649,313.5308,156.3725,203.8377,0,U,42831,999,48486,.35115415E-3,.4451E-4,0
SALSAT,2020-068K,2026-06-06T06:53:14.239104,15.29640191,.00091918,97.8852,159.6892,351.5700,8.5383,0,U,46495,999,31369,.37345248E-3,.10659E-3,0
