SAUDISAT 1C (SO-50)     
1 27607U 02058C   26157.29860910  .00001127  00000+0  14996-3 0  9995
2 27607  64.5503 162.6740 0075483 264.4886  94.7607 14.83023212262849
SAUDISAT 2              
1 28371U 04025F   26157.51949494  .00000321  00000+0  82868-4 0  9999
2 28371  98.5506 157.2259 0024110 332.2198  27.7710 14.56677687164195
SAUDISAT 3              
1 31118U 07012B   26157.58232561  .00000331  00000+0  61665-4 0  9991
2 31118  98.1451 107.9763 0013271 260.6754  99.2952 14.71419518 26185
PISAT                   
1 41784U 16059B   26157.24544747  .00001079  00000+0  19119-3 0  9993
2 41784  97.8178 158.1687 0027664 239.0281 120.8207 14.68964793518137
FLYING LAPTOP           
1 42831U 17042G   26157.58670742  .00004451  00000+0  35115-3 0  9993
2 42831  97.4649 313.5308 0019017 156.3725 203.8377 15.01075819484866
SALSAT                  
1 46495U 20068K   26157.28697036  .00010659  00000+0  37345-3 0  9991
2 46495  97.8852 159.6892 0009191 351.5700   8.5383 15.29640191313697
